[{"OBJECT_NAME":"IRIDE-MS2-HEO-9","OBJECT_ID":"2025-135BK","EPOCH":"2026-03-09T21:52:15.799008","MEAN_MOTION":14.94083208,"ECCENTRICITY":0.00030266,"INCLINATION":97.762,"RA_OF_ASC_NODE":184.6607,"ARG_OF_PERICENTER":333.8916,"MEAN_ANOMALY":26.2151,"EPHEMERIS_TYPE":0,"CLASSIFICATION_TYPE":"U","NORAD_CAT_ID":64585,"ELEMENT_SET_NO":999,"REV_AT_EPOCH":3908,"BSTAR":0.00032181213,"MEAN_MOTION_DOT":3.381e-5,"MEAN_MOTION_DDOT":0},{"OBJECT_NAME":"OKEAN-4","OBJECT_ID":"1994-066A","EPOCH":"2026-03-09T20:34:09.232320","MEAN_MOTION":14.96885016,"ECCENTRICITY":0.00147251,"INCLINATION":82.5373,"RA_OF_ASC_NODE":349.8556,"ARG_OF_PERICENTER":246.8531,"MEAN_ANOMALY":113.1141,"EPHEMERIS_TYPE":0,"CLASSIFICATION_TYPE":"U","NORAD_CAT_ID":23317,"ELEMENT_SET_NO":999,"REV_AT_EPOCH":70047,"BSTAR":0.00028288801,"MEAN_MOTION_DOT":3.276e-5,"MEAN_MOTION_DDOT":0}]
